{"type": "FeatureCollection", "features": [ {"type": "Feature", "properties": {"norad_id": 29782, "name": "FENGYUN 1C DEB", "group": "fengyun-1c-debris", "lat": 66.51706856122819, "lon": 9.475341292112162, "alt_km": 884.670712194169, "timestamp": "2025-12-03T15:48:03.343032+00:00", "meta": {"OBJECT_NAME": "FENGYUN 1C DEB", "OBJECT_ID": "1999-025BY", "EPOCH": "2025-12-03T03:40:07.131648", "MEAN_MOTION": 14.11585405, "ECCENTRICITY": 0.00549817, "INCLINATION": 99.1012, "RA_OF_ASC_NODE": 30.6142, "ARG_OF_PERICENTER": 229.3662, "MEAN_ANOMALY": 151.7084, "EPHEMERIS_TYPE": 0, "CLASSIFICATION_TYPE": "U", "NORAD_CAT_ID": 29782, "ELEMENT_SET_NO": 999, "REV_AT_EPOCH": 96536, "BSTAR": 0.0018874769, "MEAN_MOTION_DOT": 3.432e-05, "MEAN_MOTION_DDOT": 0}, "tle": {"line1": "1 29782U 99025BY  25337.15286032  .00003432  00000+0  18875-2 0  9992", "line2": "2 29782  99.1012  30.6142 0054981 229.3662 151.7084 14.11585405965364"}}, "geometry": {"type": "Point", "coordinates": [9.475341292112162, 66.51706856122819]}}, {"type": "Feature", "properties": {"norad_id": 29784, "name": "FENGYUN 1C DEB", "group": "fengyun-1c-debris", "lat": -36.38448087194968, "lon": -97.13824678664672, "alt_km": 753.228926521997, "timestamp": "2025-12-03T15:48:03.343042+00:00", "meta": {"OBJECT_NAME": "FENGYUN 1C DEB", "OBJECT_ID": "1999-025CA", "EPOCH": "2025-12-03T08:09:32.809248", "MEAN_MOTION": 14.30536127, "ECCENTRICITY": 0.0059966, "INCLINATION": 98.9447, "RA_OF_ASC_NODE": 255.8702, "ARG_OF_PERICENTER": 325.031, "MEAN_ANOMALY": 159.3158, "EPHEMERIS_TYPE": 0, "CLASSIFICATION_TYPE": "U", "NORAD_CAT_ID": 29784, "ELEMENT_SET_NO": 999, "REV_AT_EPOCH": 98225, "BSTAR": 0.00087429249, "MEAN_MOTION_DOT": 2.278e-05, "MEAN_MOTION_DDOT": 0}, "tle": {"line1": "1 29784U 99025CA  25337.33996307  .00002278  00000+0  87429-3 0  9996", "line2": "2 29784  98.9447 255.8702 0059966 325.0310 159.3158 14.30536127982251"}}, "geometry": {"type": "Point", "coordinates": [-97.13824678664672, -36.38448087194968]}}, {"type": "Feature", "properties": {"norad_id": 29786, "name": "FENGYUN 1C DEB", "group": "fengyun-1c-debris", "lat": -61.97715484847972, "lon": 158.35913585688172, "alt_km": 865.1363245352732, "timestamp": "2025-12-03T15:48:03.343051+00:00", "meta": {"OBJECT_NAME": "FENGYUN 1C DEB", "OBJECT_ID": "1999-025CC", "EPOCH": "2025-12-02T23:35:05.720640", "MEAN_MOTION": 14.09074273, "ECCENTRICITY": 0.0077325, "INCLINATION": 98.7363, "RA_OF_ASC_NODE": 354.4971, "ARG_OF_PERICENTER": 330.9109, "MEAN_ANOMALY": 87.6608, "EPHEMERIS_TYPE": 0, "CLASSIFICATION_TYPE": "U", "NORAD_CAT_ID": 29786, "ELEMENT_SET_NO": 999, "REV_AT_EPOCH": 97023, "BSTAR": 0.0002679789, "MEAN_MOTION_DOT": 4.35e-06, "MEAN_MOTION_DDOT": 0}, "tle": {"line1": "1 29786U 99025CC  25336.98270510  .00000435  00000+0  26798-3 0  9994", "line2": "2 29786  98.7363 354.4971 0077325 330.9109  87.6608 14.09074273970235"}}, "geometry": {"type": "Point", "coordinates": [158.35913585688172, -61.97715484847972]}}, {"type": "Feature", "properties": {"norad_id": 29788, "name": "FENGYUN 1C DEB", "group": "fengyun-1c-debris", "lat": -11.062234427874332, "lon": 50.993798774930646, "alt_km": 831.3086992990848, "timestamp": "2025-12-03T15:48:03.343061+00:00", "meta": {"OBJECT_NAME": "FENGYUN 1C DEB", "OBJECT_ID": "1999-025CE", "EPOCH": "2025-12-03T04:11:49.010784", "MEAN_MOTION": 14.25848384, "ECCENTRICITY": 0.00427566, "INCLINATION": 98.7854, "RA_OF_ASC_NODE": 48.7767, "ARG_OF_PERICENTER": 215.8819, "MEAN_ANOMALY": 172.2605, "EPHEMERIS_TYPE": 0, "CLASSIFICATION_TYPE": "U", "NORAD_CAT_ID": 29788, "ELEMENT_SET_NO": 999, "REV_AT_EPOCH": 97219, "BSTAR": 0.0023429111, "MEAN_MOTION_DOT": 5.587e-05, "MEAN_MOTION_DDOT": 0}, "tle": {"line1": "1 29788U 99025CE  25337.17487281  .00005587  00000+0  23429-2 0  9993", "line2": "2 29788  98.7854  48.7767 0042756 215.8819 172.2605 14.25848384972192"}}, "geometry": {"type": "Point", "coordinates": [50.993798774930646, -11.062234427874332]}}, {"type": "Feature", "properties": {"norad_id": 29789, "name": "FENGYUN 1C DEB", "group": "fengyun-1c-debris", "lat": -43.81344254974921, "lon": 170.03274081012378, "alt_km": 847.5429055162531, "timestamp": "2025-12-03T15:48:03.343070+00:00", "meta": {"OBJECT_NAME": "FENGYUN 1C DEB", "OBJECT_ID": "1999-025CF", "EPOCH": "2025-12-02T18:48:53.557344", "MEAN_MOTION": 13.54203296, "ECCENTRICITY": 0.02983938, "INCLINATION": 99.4521, "RA_OF_ASC_NODE": 159.9992, "ARG_OF_PERICENTER": 303.918, "MEAN_ANOMALY": 70.0924, "EPHEMERIS_TYPE": 0, "CLASSIFICATION_TYPE": "U", "NORAD_CAT_ID": 29789, "ELEMENT_SET_NO": 999, "REV_AT_EPOCH": 92853, "BSTAR": 0.001621275, "MEAN_MOTION_DOT": 1.419e-05, "MEAN_MOTION_DDOT": 0}, "tle": {"line1": "1 29789U 99025CF  25336.78395321  .00001419  00000+0  16213-2 0  9996", "line2": "2 29789  99.4521 159.9992 0298393 303.9180  70.0924 13.54203296928533"}}, "geometry": {"type": "Point", "coordinates": [170.03274081012378, -43.81344254974921]}}, {"type": "Feature", "properties": {"norad_id": 29790, "name": "FENGYUN 1C DEB", "group": "fengyun-1c-debris", "lat": 54.45674409066434, "lon": -41.84242241044764, "alt_km": 824.8315495849811, "timestamp": "2025-12-03T15:48:03.343079+00:00", "meta": {"OBJECT_NAME": "FENGYUN 1C DEB", "OBJECT_ID": "1999-025CG", "EPOCH": "2025-12-03T05:28:44.473728", "MEAN_MOTION": 14.32244391, "ECCENTRICITY": 0.00760985, "INCLINATION": 99.1469, "RA_OF_ASC_NODE": 330.7376, "ARG_OF_PERICENTER": 204.2013, "MEAN_ANOMALY": 155.5587, "EPHEMERIS_TYPE": 0, "CLASSIFICATION_TYPE": "U", "NORAD_CAT_ID": 29790, "ELEMENT_SET_NO": 999, "REV_AT_EPOCH": 98389, "BSTAR": 0.00043591031, "MEAN_MOTION_DOT": 1.165e-05, "MEAN_MOTION_DDOT": 0}, "tle": {"line1": "1 29790U 99025CG  25337.22829252  .00001165  00000+0  43591-3 0  9991", "line2": "2 29790  99.1469 330.7376 0076098 204.2013 155.5587 14.32244391983894"}}, "geometry": {"type": "Point", "coordinates": [-41.84242241044764, 54.45674409066434]}}, {"type": "Feature", "properties": {"norad_id": 29791, "name": "FENGYUN 1C DEB", "group": "fengyun-1c-debris", "lat": -40.54152240020527, "lon": 149.60082645343587, "alt_km": 725.8564140014332, "timestamp": "2025-12-03T15:48:03.343088+00:00", "meta": {"OBJECT_NAME": "FENGYUN 1C DEB", "OBJECT_ID": "1999-025CH", "EPOCH": "2025-12-03T06:37:30.829728", "MEAN_MOTION": 14.58023836, "ECCENTRICITY": 0.00416803, "INCLINATION": 99.0358, "RA_OF_ASC_NODE": 337.0086, "ARG_OF_PERICENTER": 89.8691, "MEAN_ANOMALY": 285.2391, "EPHEMERIS_TYPE": 0, "CLASSIFICATION_TYPE": "U", "NORAD_CAT_ID": 29791, "ELEMENT_SET_NO": 999, "REV_AT_EPOCH": 98708, "BSTAR": 0.0020262005, "MEAN_MOTION_DOT": 9.382e-05, "MEAN_MOTION_DDOT": 0}, "tle": {"line1": "1 29791U 99025CH  25337.27605127  .00009382  00000+0  20262-2 0  9998", "line2": "2 29791  99.0358 337.0086 0041680  89.8691 285.2391 14.58023836987083"}}, "geometry": {"type": "Point", "coordinates": [149.60082645343587, -40.54152240020527]}}, {"type": "Feature", "properties": {"norad_id": 29792, "name": "FENGYUN 1C DEB", "group": "fengyun-1c-debris", "lat": -26.090944246401044, "lon": -155.94032166451836, "alt_km": 875.8377614065303, "timestamp": "2025-12-03T15:48:03.343097+00:00", "meta": {"OBJECT_NAME": "FENGYUN 1C DEB", "OBJECT_ID": "1999-025CJ", "EPOCH": "2025-12-03T02:57:14.874048", "MEAN_MOTION": 14.15080021, "ECCENTRICITY": 0.00486415, "INCLINATION": 98.7588, "RA_OF_ASC_NODE": 27.864, "ARG_OF_PERICENTER": 64.2691, "MEAN_ANOMALY": 296.3493, "EPHEMERIS_TYPE": 0, "CLASSIFICATION_TYPE": "U", "NORAD_CAT_ID": 29792, "ELEMENT_SET_NO": 999, "REV_AT_EPOCH": 96803, "BSTAR": 0.0016547588, "MEAN_MOTION_DOT": 3.202e-05, "MEAN_MOTION_DDOT": 0}, "tle": {"line1": "1 29792U 99025CJ  25337.12308882  .00003202  00000+0  16548-2 0  9998", "line2": "2 29792  98.7588  27.8640 0048641  64.2691 296.3493 14.15080021968038"}}, "geometry": {"type": "Point", "coordinates": [-155.94032166451836, -26.090944246401044]}}, {"type": "Feature", "properties": {"norad_id": 29793, "name": "FENGYUN 1C DEB", "group": "fengyun-1c-debris", "lat": -74.43622652525553, "lon": -170.95392187020377, "alt_km": 879.3108708565824, "timestamp": "2025-12-03T15:48:03.343106+00:00", "meta": {"OBJECT_NAME": "FENGYUN 1C DEB", "OBJECT_ID": "1999-025CK", "EPOCH": "2025-12-02T11:16:28.405344", "MEAN_MOTION": 14.010291, "ECCENTRICITY": 0.01442563, "INCLINATION": 98.3558, "RA_OF_ASC_NODE": 156.1091, "ARG_OF_PERICENTER": 7.3697, "MEAN_ANOMALY": 45.8655, "EPHEMERIS_TYPE": 0, "CLASSIFICATION_TYPE": "U", "NORAD_CAT_ID": 29793, "ELEMENT_SET_NO": 999, "REV_AT_EPOCH": 96005, "BSTAR": 0.0010986673, "MEAN_MOTION_DOT": 1.763e-05, "MEAN_MOTION_DDOT": 0}, "tle": {"line1": "1 29793U 99025CK  25336.46977321  .00001763  00000+0  10987-2 0  9996", "line2": "2 29793  98.3558 156.1091 0144256   7.3697  45.8655 14.01029100960058"}}, "geometry": {"type": "Point", "coordinates": [-170.95392187020377, -74.43622652525553]}}, {"type": "Feature", "properties": {"norad_id": 29794, "name": "FENGYUN 1C DEB", "group": "fengyun-1c-debris", "lat": -26.28912962005186, "lon": 141.18722629733938, "alt_km": 872.6690800479291, "timestamp": "2025-12-03T15:48:03.343116+00:00", "meta": {"OBJECT_NAME": "FENGYUN 1C DEB", "OBJECT_ID": "1999-025CL", "EPOCH": "2025-12-03T04:14:52.763712", "MEAN_MOTION": 14.0896601, "ECCENTRICITY": 0.01574888, "INCLINATION": 98.1995, "RA_OF_ASC_NODE": 136.6645, "ARG_OF_PERICENTER": 67.884, "MEAN_ANOMALY": 347.1728, "EPHEMERIS_TYPE": 0, "CLASSIFICATION_TYPE": "U", "NORAD_CAT_ID": 29794, "ELEMENT_SET_NO": 999, "REV_AT_EPOCH": 96713, "BSTAR": 0.00080438058, "MEAN_MOTION_DOT": 1.524e-05, "MEAN_MOTION_DDOT": 0}, "tle": {"line1": "1 29794U 99025CL  25337.17699958  .00001524  00000+0  80438-3 0  9997", "line2": "2 29794  98.1995 136.6645 0157488  67.8840 347.1728 14.08966010967134"}}, "geometry": {"type": "Point", "coordinates": [141.18722629733938, -26.28912962005186]}}]}